[{"OBJECT_NAME":"ONEWEB-0432","OBJECT_ID":"2021-132AK","EPOCH":"2026-03-09T19:26:56.167584","MEAN_MOTION":13.18645009,"ECCENTRICITY":0.00022838,"INCLINATION":87.9252,"RA_OF_ASC_NODE":355.1664,"ARG_OF_PERICENTER":62.7951,"MEAN_ANOMALY":297.3413,"EPHEMERIS_TYPE":0,"CLASSIFICATION_TYPE":"U","NORAD_CAT_ID":50502,"ELEMENT_SET_NO":999,"REV_AT_EPOCH":20848,"BSTAR":0.00016431965,"MEAN_MOTION_DOT":7.8e-7,"MEAN_MOTION_DDOT":0},{"OBJECT_NAME":"SL-14 DEB","OBJECT_ID":"1991-056DR","EPOCH":"2026-03-08T19:43:50.264256","MEAN_MOTION":13.20393138,"ECCENTRICITY":0.00134558,"INCLINATION":82.5986,"RA_OF_ASC_NODE":214.3324,"ARG_OF_PERICENTER":222.1757,"MEAN_ANOMALY":137.8333,"EPHEMERIS_TYPE":0,"CLASSIFICATION_TYPE":"U","NORAD_CAT_ID":47091,"ELEMENT_SET_NO":999,"REV_AT_EPOCH":25739,"BSTAR":0.0015116276,"MEAN_MOTION_DOT":6.24e-6,"MEAN_MOTION_DDOT":0}]
